H1 CPF 01  gfz 2022 04 19 00  6091 tandemx   
H2 1003001  6202 36605    2022 04 19 00 59 42 2022 04 24 00 00 42   120 1 1  0 0 0
H9
10 0 59692  71982.000000  0    4442755.282  -3152744.588   4206544.739
10 0 59692  72102.000000  0    3843015.413  -2962037.210   4879796.661
10 0 59692  72222.000000  0    3180005.413  -2708514.571   5467164.478
10 0 59692  72342.000000  0    2466401.671  -2395628.183   5958345.630
10 0 59692  72462.000000  0    1715684.245  -2028091.853   6344736.987
10 0 59692  72582.000000  0     941877.742  -1611808.858   6619579.903
10 0 59692  72702.000000  0     159286.443  -1153774.948   6778072.380
10 0 59692  72822.000000  0    -617770.783   -661959.028   6817447.395
10 0 59692  72942.000000  0   -1375221.550   -145164.025   6737017.441
10 0 59692  73062.000000  0   -2099493.687    387130.358   6538185.801
10 0 59692  73182.000000  0   -2777757.692    924940.925   6224423.806
10 0 59692  73302.000000  0   -3398154.613   1457967.208   5801214.328
10 0 59692  73422.000000  0   -3950006.133   1975787.932   5275962.212
10 0 59692  73542.000000  0   -4424003.756   2468065.150   4657871.444
10 0 59692  73662.000000  0   -4812372.749   2924752.093   3957788.633
10 0 59692  73782.000000  0   -5109006.005   3336299.321   3188015.356
10 0 59692  73902.000000  0   -5309566.350   3693855.871   2362093.607
10 0 59692  74022.000000  0   -5411554.685   3989461.097   1494566.282
10 0 59692  74142.000000  0   -5414341.740   4216221.572    600715.662
10 0 59692  74262.000000  0   -5319160.545   4368467.502   -303713.577
10 0 59692  74382.000000  0   -5129062.011   4441885.796  -1202799.688
10 0 59692  74502.000000  0   -4848833.768   4433626.707  -2080733.948
10 0 59692  74622.000000  0   -4484882.846   4342379.185  -2922107.705
10 0 59692  74742.000000  0   -4045086.965   4168413.926  -3712188.163
10 0 59692  74862.000000  0   -3538618.807   3913594.287  -4437177.647
10 0 59692  74982.000000  0   -2975748.735   3581355.618  -5084451.169
10 0 59692  75102.000000  0   -2367632.524   3176654.383  -5642768.680
10 0 59692  75222.000000  0   -1726087.886   2705889.516  -6102461.943
10 0 59692  75342.000000  0   -1063362.930   2176795.602  -6455591.581
10 0 59692  75462.000000  0    -391903.486   1598312.172  -6696071.868
10 0 59692  75582.000000  0     275876.884    980432.026  -6819764.961
10 0 59692  75702.000000  0     927820.303    334030.756  -6824544.636
10 0 59692  75822.000000  0    1552241.540   -329320.905  -6710329.997
10 0 59692  75942.000000  0    2138132.463   -997559.679  -6479085.118
10 0 59692  76062.000000  0    2675351.596  -1658343.173  -6134789.170
10 0 59692  76182.000000  0    3154797.657  -2299271.983  -5683375.203
10 0 59692  76302.000000  0    3568564.635  -2908118.556  -5132640.037
10 0 59692  76422.000000  0    3910076.403  -3473060.962  -4492120.263
10 0 59692  76542.000000  0    4174194.695  -3982912.834  -3772936.422
10 0 59692  76662.000000  0    4357301.518  -4427347.075  -2987610.332
10 0 59692  76782.000000  0    4457354.251  -4797109.693  -2149854.108
10 0 59692  76902.000000  0    4473910.207  -5084218.010  -1274333.732
10 0 59692  77022.000000  0    4408118.400  -5282137.842   -376410.690
10 0 59692  77142.000000  0    4262679.056  -5385933.408    528132.522
10 0 59692  77262.000000  0    4041771.620  -5392387.311   1423376.966
10 0 59692  77382.000000  0    3750952.213  -5300085.719   2293557.248
10 0 59692  77502.000000  0    3397022.367  -5109466.532   3123347.398
10 0 59692  77622.000000  0    2987874.240  -4822831.136   3898138.061
10 0 59692  77742.000000  0    2532315.591  -4444317.336   4604298.851
10 0 59692  77862.000000  0    2039879.567  -3979835.709   5229420.681
10 0 59692  77982.000000  0    1520623.556  -3436971.125   5762533.301
10 0 59692  78102.000000  0     984921.532  -2824851.347   6194295.129
10 0 59692  78222.000000  0     443255.008  -2153987.069   6517150.861
10 0 59692  78342.000000  0     -93992.583  -1436087.009   6725456.728
10 0 59692  78462.000000  0    -616733.920   -683851.485   6815573.908
10 0 59692  78582.000000  0   -1115366.058     89253.949   6785928.628
10 0 59692  78702.000000  0   -1580946.235    869239.527   6637037.659
10 0 59692  78822.000000  0   -2005351.804   1641843.764   6371499.631
10 0 59692  78942.000000  0   -2381422.459   2392793.334   5993952.531
10 0 59692  79062.000000  0   -2703082.030   3108067.046   5510997.699
10 0 59692  79182.000000  0   -2965438.565   3774159.514   4931090.891
10 0 59692  79302.000000  0   -3164861.597   4378340.342   4264400.554
10 0 59692  79422.000000  0   -3299033.476   4908903.592   3522634.078
10 0 59692  79542.000000  0   -3366973.960   5355402.143   2718834.162
10 0 59692  79662.000000  0   -3369036.893   5708860.541   1867148.233
10 0 59692  79782.000000  0   -3306879.453   5961960.657    982575.885
10 0 59692  79902.000000  0   -3183404.262   6109197.883     80699.644
10 0 59692  80022.000000  0   -3002675.664   6147002.409   -822598.065
10 0 59692  80142.000000  0   -2769812.644   6073820.984  -1711424.955
10 0 59692  80262.000000  0   -2490858.744   5890156.000  -2570169.487
10 0 59692  80382.000000  0   -2172633.680   5598561.221  -3383780.238
10 0 59692  80502.000000  0   -1822573.253   5203599.727  -4138031.624
10 0 59692  80622.000000  0   -1448560.317   4711761.321  -4819771.789
10 0 59692  80742.000000  0   -1058751.716   4131344.887  -5417145.962
10 0 59692  80862.000000  0    -661404.390   3472309.388  -5919795.227
10 0 59692  80982.000000  0    -264703.761   2746094.576  -6319027.154
10 0 59692  81102.000000  0     123401.172   1965416.238  -6607954.153
10 0 59692  81222.000000  0     495352.158   1144042.678  -6781601.030
10 0 59692  81342.000000  0     844124.501    296553.748  -6836982.386
10 0 59692  81462.000000  0    1163356.192   -561913.611  -6773148.114
10 0 59692  81582.000000  0    1447460.506  -1415930.081  -6591196.585
10 0 59692  81702.000000  0    1691721.175  -2250043.397  -6294257.110
10 0 59692  81822.000000  0    1892370.077  -3049050.803  -5887442.961
10 0 59692  81942.000000  0    2046645.523  -3798272.894  -5377774.230
10 0 59692  82062.000000  0    2152830.226  -4483824.680  -4774066.999
10 0 59692  82182.000000  0    2210267.769  -5092874.524  -4086790.766
10 0 59692  82302.000000  0    2219357.708  -5613889.772  -3327897.915
10 0 59692  82422.000000  0    2181528.711  -6036864.523  -2510624.154
10 0 59692  82542.000000  0    2099189.805  -6353523.359  -1649262.482
10 0 59692  82662.000000  0    1975659.459  -6557494.255   -758913.713
10 0 59692  82782.000000  0    1815077.417  -6644447.241    144782.171
10 0 59692  82902.000000  0    1622296.546  -6612190.727   1045927.559
10 0 59692  83022.000000  0    1402760.794  -6460729.009   1928654.271
10 0 59692  83142.000000  0    1162370.232  -6192272.835   2777414.191
10 0 59692  83262.000000  0     907337.341  -5811204.529   3577260.711
10 0 59692  83382.000000  0     644038.252  -5324000.830   4314117.865
10 0 59692  83502.000000  0     378863.293  -4739114.922   4975031.141
10 0 59692  83622.000000  0     118069.451  -4066820.326   5548396.200
10 0 59692  83742.000000  0    -132360.072  -3319020.238   6024160.768
10 0 59692  83862.000000  0    -366846.887  -2509026.943   6393995.913
10 0 59692  83982.000000  0    -580336.931  -1651318.916   6651434.232
10 0 59692  84102.000000  0    -768405.538   -761279.724   6791977.235
10 0 59692  84222.000000  0    -927346.738    145079.479   6813170.441
10 0 59692  84342.000000  0   -1054245.408   1051408.608   6714643.713
10 0 59692  84462.000000  0   -1147030.225   1941313.212   6498116.994
10 0 59692  84582.000000  0   -1204507.238   2798650.453   6167372.142
10 0 59692  84702.000000  0   -1226374.144   3607822.477   5728191.032
10 0 59692  84822.000000  0   -1213214.367   4354062.623   5188259.733
10 0 59692  84942.000000  0   -1166470.875   5023709.644   4557040.578
10 0 59692  85062.000000  0   -1088401.157   5604465.831   3845611.124
10 0 59692  85182.000000  0    -982012.721   6085630.563   3066472.751
10 0 59692  85302.000000  0    -850983.363   6458308.568   2233333.699
10 0 59692  85422.000000  0    -699563.651   6715585.250   1360863.561
10 0 59692  85542.000000  0    -532465.482   6852661.738    464429.435
10 0 59692  85662.000000  0    -354740.110   6866949.418   -440181.579
10 0 59692  85782.000000  0    -171648.449   6758121.110  -1337049.787
10 0 59692  85902.000000  0      11472.740   6528114.057  -2210413.466
10 0 59692  86022.000000  0     189344.307   6181086.453  -3044952.215
10 0 59692  86142.000000  0     356875.395   5723332.417  -3826059.173
10 0 59692  86262.000000  0     509288.816   5163156.173  -4540097.643
10 0 59692  86382.000000  0     642237.735   4510708.779  -5174636.418
99
